{"type": "FeatureCollection", "features": [{"type": "Feature", "id": "06570", "properties": {"id": "06570", "name": "Брусарци", "province": "Монтана"}, "geometry": {"type": "Point", "coordinates": [23.0667, 43.6667]}}, {"type": "Feature", "id": "12543", "properties": {"id": "12543", "name": "Вълчедръм", "province": "Монтана"}, "geometry": {"type": "Point", "coordinates": [23.442701, 43.694974]}}, {"type": "Feature", "id": "05236", "properties": {"id": "05236", "name": "Бойчиновци", "province": "Монтана"}, "geometry": {"type": "Point", "coordinates": [23.3358, 43.4722]}}, {"type": "Feature", "id": "81390", "properties": {"id": "81390", "name": "Чипровци", "province": "Монтана"}, "geometry": {"type": "Point", "coordinates": [22.88207, 43.384442]}}, {"type": "Feature", "id": "37318", "properties": {"id": "37318", "name": "ман. Клисурски манастир", "province": "Монтана"}, "geometry": {"type": "Point", "coordinates": [23.205482, 43.183107]}}, {"type": "Feature", "id": "12961", "properties": {"id": "12961", "name": "Вършец", "province": "Монтана"}, "geometry": {"type": "Point", "coordinates": [23.286581, 43.193876]}}, {"type": "Feature", "id": "03928", "properties": {"id": "03928", "name": "Берковица", "province": "Монтана"}, "geometry": {"type": "Point", "coordinates": [23.1258, 43.2361]}}, {"type": "Feature", "id": "48489", "properties": {"id": "48489", "name": "Монтана", "province": "Монтана"}, "geometry": {"type": "Point", "coordinates": [23.225729, 43.408516]}}, {"type": "Feature", "id": "44238", "properties": {"id": "44238", "name": "Лом", "province": "Монтана"}, "geometry": {"type": "Point", "coordinates": [23.238333, 43.817838]}}, {"type": "Feature", "id": "00518", "properties": {"id": "00518", "name": "Антоново", "province": "Търговище"}, "geometry": {"type": "Point", "coordinates": [26.160604, 43.149236]}}, {"type": "Feature", "id": "53552", "properties": {"id": "53552", "name": "Опака", "province": "Търговище"}, "geometry": {"type": "Point", "coordinates": [26.173745, 43.446971]}}, {"type": "Feature", "id": "57649", "properties": {"id": "57649", "name": "Попово", "province": "Търговище"}, "geometry": {"type": "Point", "coordinates": [26.22682, 43.349057]}}, {"type": "Feature", "id": "73626", "properties": {"id": "73626", "name": "Търговище", "province": "Търговище"}, "geometry": {"type": "Point", "coordinates": [26.572736, 43.249356]}}, {"type": "Feature", "id": "53535", "properties": {"id": "53535", "name": "Омуртаг", "province": "Търговище"}, "geometry": {"type": "Point", "coordinates": [26.417685, 43.10828]}}, {"type": "Feature", "id": "31111", "properties": {"id": "31111", "name": "Златоград", "province": "Смолян"}, "geometry": {"type": "Point", "coordinates": [25.096521, 41.379845]}}, {"type": "Feature", "id": "63207", "properties": {"id": "63207", "name": "Рудозем", "province": "Смолян"}, "geometry": {"type": "Point", "coordinates": [24.847786, 41.487055]}}, {"type": "Feature", "id": "23025", "properties": {"id": "23025", "name": "Доспат", "province": "Смолян"}, "geometry": {"type": "Point", "coordinates": [24.159524, 41.645973]}}, {"type": "Feature", "id": "20465", "properties": {"id": "20465", "name": "Девин", "province": "Смолян"}, "geometry": {"type": "Point", "coordinates": [24.391539, 41.742911]}}, {"type": "Feature", "id": "51319", "properties": {"id": "51319", "name": "Неделино", "province": "Смолян"}, "geometry": {"type": "Point", "coordinates": [25.078798, 41.456392]}}, {"type": "Feature", "id": "67653", "properties": {"id": "67653", "name": "Смолян", "province": "Смолян"}, "geometry": {"type": "Point", "coordinates": [24.710126, 41.574406]}}, {"type": "Feature", "id": "46045", "properties": {"id": "46045", "name": "Мадан", "province": "Смолян"}, "geometry": {"type": "Point", "coordinates": [24.939933, 41.49858]}}, {"type": "Feature", "id": "80371", "properties": {"id": "80371", "name": "Чепеларе", "province": "Смолян"}, "geometry": {"type": "Point", "coordinates": [24.685621, 41.724762]}}, {"type": "Feature", "id": "24565", "properties": {"id": "24565", "name": "Дългопол", "province": "Варна"}, "geometry": {"type": "Point", "coordinates": [27.346389, 43.049656]}}, {"type": "Feature", "id": "20482", "properties": {"id": "20482", "name": "Девня", "province": "Варна"}, "geometry": {"type": "Point", "coordinates": [27.5694, 43.2222]}}, {"type": "Feature", "id": "58503", "properties": {"id": "58503", "name": "Провадия", "province": "Варна"}, "geometry": {"type": "Point", "coordinates": [27.440573, 43.177032]}}, {"type": "Feature", "id": "12574", "properties": {"id": "12574", "name": "Вълчи дол", "province": "Варна"}, "geometry": {"type": "Point", "coordinates": [27.551189, 43.405533]}}, {"type": "Feature", "id": "00182", "properties": {"id": "00182", "name": "Аксаково", "province": "Варна"}, "geometry": {"type": "Point", "coordinates": [27.817378, 43.259037]}}, {"type": "Feature", "id": "32278", "properties": {"id": "32278", "name": "Игнатиево", "province": "Варна"}, "geometry": {"type": "Point", "coordinates": [27.779029, 43.248084]}}, {"type": "Feature", "id": "70175", "properties": {"id": "70175", "name": "Суворово", "province": "Варна"}, "geometry": {"type": "Point", "coordinates": [27.59122, 43.331546]}}, {"type": "Feature", "id": "21912", "properties": {"id": "21912", "name": "Долни чифлик", "province": "Варна"}, "geometry": {"type": "Point", "coordinates": [27.7167, 42.9833]}}, {"type": "Feature", "id": "10135", "properties": {"id": "10135", "name": "Варна", "province": "Варна"}, "geometry": {"type": "Point", "coordinates": [27.910543, 43.204665]}}, {"type": "Feature", "id": "07598", "properties": {"id": "07598", "name": "Бяла", "province": "Варна"}, "geometry": {"type": "Point", "coordinates": [27.881118, 42.879901]}}, {"type": "Feature", "id": "03719", "properties": {"id": "03719", "name": "Белослав", "province": "Варна"}, "geometry": {"type": "Point", "coordinates": [27.704173, 43.187107]}}, {"type": "Feature", "id": "07140", "properties": {"id": "07140", "name": "Бухово", "province": "София (столица)"}, "geometry": {"type": "Point", "coordinates": [23.566146, 42.764722]}}, {"type": "Feature", "id": "68134", "properties": {"id": "68134", "name": "София", "province": "София (столица)"}, "geometry": {"type": "Point", "coordinates": [23.32167, 42.697839]}}, {"type": "Feature", "id": "00357", "properties": {"id": "00357", "name": "Нови Искър", "province": "София (столица)"}, "geometry": {"type": "Point", "coordinates": [23.348721, 42.807433]}}, {"type": "Feature", "id": "02659", "properties": {"id": "02659", "name": "Банкя", "province": "София (столица)"}, "geometry": {"type": "Point", "coordinates": [23.146967, 42.707402]}}, {"type": "Feature", "id": "56277", "properties": {"id": "56277", "name": "Пещера", "province": "Пазарджик"}, "geometry": {"type": "Point", "coordinates": [24.298726, 42.029886]}}, {"type": "Feature", "id": "10820", "properties": {"id": "10820", "name": "Ветрен", "province": "Пазарджик"}, "geometry": {"type": "Point", "coordinates": [24.047931, 42.278879]}}, {"type": "Feature", "id": "66264", "properties": {"id": "66264", "name": "Септември", "province": "Пазарджик"}, "geometry": {"type": "Point", "coordinates": [24.132951, 42.206817]}}, {"type": "Feature", "id": "10450", "properties": {"id": "10450", "name": "Велинград", "province": "Пазарджик"}, "geometry": {"type": "Point", "coordinates": [23.991552, 42.027544]}}, {"type": "Feature", "id": "70648", "properties": {"id": "70648", "name": "Сърница", "province": "Пазарджик"}, "geometry": {"type": "Point", "coordinates": [24.0333, 41.7333]}}, {"type": "Feature", "id": "69835", "properties": {"id": "69835", "name": "Стрелча", "province": "Пазарджик"}, "geometry": {"type": "Point", "coordinates": [24.320991, 42.506051]}}, {"type": "Feature", "id": "06207", "properties": {"id": "06207", "name": "Брацигово", "province": "Пазарджик"}, "geometry": {"type": "Point", "coordinates": [24.3667, 42.0167]}}, {"type": "Feature", "id": "03592", "properties": {"id": "03592", "name": "Белово", "province": "Пазарджик"}, "geometry": {"type": "Point", "coordinates": [24.018079, 42.214748]}}, {"type": "Feature", "id": "02837", "properties": {"id": "02837", "name": "Батак", "province": "Пазарджик"}, "geometry": {"type": "Point", "coordinates": [24.218969, 41.944177]}}, {"type": "Feature", "id": "55302", "properties": {"id": "55302", "name": "Панагюрище", "province": "Пазарджик"}, "geometry": {"type": "Point", "coordinates": [24.185962, 42.500791]}}, {"type": "Feature", "id": "38844", "properties": {"id": "38844", "name": "Костандово", "province": "Пазарджик"}, "geometry": {"type": "Point", "coordinates": [24.112477, 42.023246]}}, {"type": "Feature", "id": "62004", "properties": {"id": "62004", "name": "Ракитово", "province": "Пазарджик"}, "geometry": {"type": "Point", "coordinates": [24.087484, 41.989488]}}, {"type": "Feature", "id": "55155", "properties": {"id": "55155", "name": "Пазарджик", "province": "Пазарджик"}, "geometry": {"type": "Point", "coordinates": [24.333566, 42.192765]}}, {"type": "Feature", "id": "21052", "properties": {"id": "21052", "name": "Димитровград", "province": "Хасково"}, "geometry": {"type": "Point", "coordinates": [25.593329, 42.060269]}}, {"type": "Feature", "id": "47843", "properties": {"id": "47843", "name": "Меричлери", "province": "Хасково"}, "geometry": {"type": "Point", "coordinates": [25.496102, 42.137395]}}, {"type": "Feature", "id": "65677", "properties": {"id": "65677", "name": "Свиленград", "province": "Хасково"}, "geometry": {"type": "Point", "coordinates": [26.201943, 41.765488]}}, {"type": "Feature", "id": "32024", "properties": {"id": "32024", "name": "Ивайловград", "province": "Хасково"}, "geometry": {"type": "Point", "coordinates": [26.124272, 41.526698]}}, {"type": "Feature", "id": "46084", "properties": {"id": "46084", "name": "Маджарово", "province": "Хасково"}, "geometry": {"type": "Point", "coordinates": [25.8667, 41.6333]}}, {"type": "Feature", "id": "72761", "properties": {"id": "72761", "name": "Тополовград", "province": "Хасково"}, "geometry": {"type": "Point", "coordinates": [26.333087, 42.0851]}}, {"type": "Feature", "id": "77181", "properties": {"id": "77181", "name": "Харманли", "province": "Хасково"}, "geometry": {"type": "Point", "coordinates": [25.902586, 41.930412]}}, {"type": "Feature", "id": "77195", "properties": {"id": "77195", "name": "Хасково", "province": "Хасково"}, "geometry": {"type": "Point", "coordinates": [25.555446, 41.934437]}}, {"type": "Feature", "id": "47278", "properties": {"id": "47278", "name": "Симеоновград", "province": "Хасково"}, "geometry": {"type": "Point", "coordinates": [25.831001, 42.034986]}}, {"type": "Feature", "id": "44570", "properties": {"id": "44570", "name": "Любимец", "province": "Хасково"}, "geometry": {"type": "Point", "coordinates": [26.085536, 41.847375]}}, {"type": "Feature", "id": "36837", "properties": {"id": "36837", "name": "Килифарево", "province": "Велико Търново"}, "geometry": {"type": "Point", "coordinates": [25.621557, 42.994952]}}, {"type": "Feature", "id": "20242", "properties": {"id": "20242", "name": "Дебелец", "province": "Велико Търново"}, "geometry": {"type": "Point", "coordinates": [25.6167, 43.0333]}}, {"type": "Feature", "id": "10447", "properties": {"id": "10447", "name": "Велико Търново", "province": "Велико Търново"}, "geometry": {"type": "Point", "coordinates": [25.652599, 43.083071]}}, {"type": "Feature", "id": "70295", "properties": {"id": "70295", "name": "Сухиндол", "province": "Велико Търново"}, "geometry": {"type": "Point", "coordinates": [25.164289, 43.184363]}}, {"type": "Feature", "id": "44793", "properties": {"id": "44793", "name": "Лясковец", "province": "Велико Търново"}, "geometry": {"type": "Point", "coordinates": [25.719723, 43.108138]}}, {"type": "Feature", "id": "07716", "properties": {"id": "07716", "name": "Бяла черква", "province": "Велико Търново"}, "geometry": {"type": "Point", "coordinates": [25.310808, 43.205409]}}, {"type": "Feature", "id": "55052", "properties": {"id": "55052", "name": "Павликени", "province": "Велико Търново"}, "geometry": {"type": "Point", "coordinates": [25.306592, 43.238733]}}, {"type": "Feature", "id": "30962", "properties": {"id": "30962", "name": "Златарица", "province": "Велико Търново"}, "geometry": {"type": "Point", "coordinates": [25.892666, 43.049563]}}, {"type": "Feature", "id": "16359", "properties": {"id": "16359", "name": "Горна Оряховица", "province": "Велико Търново"}, "geometry": {"type": "Point", "coordinates": [25.689676, 43.120802]}}, {"type": "Feature", "id": "22232", "properties": {"id": "22232", "name": "Долна Оряховица", "province": "Велико Търново"}, "geometry": {"type": "Point", "coordinates": [25.739488, 43.156662]}}, {"type": "Feature", "id": "65766", "properties": {"id": "65766", "name": "Свищов", "province": "Велико Търново"}, "geometry": {"type": "Point", "coordinates": [25.3504, 43.6196]}}, {"type": "Feature", "id": "69633", "properties": {"id": "69633", "name": "Стражица", "province": "Велико Търново"}, "geometry": {"type": "Point", "coordinates": [25.9667, 43.2333]}}, {"type": "Feature", "id": "27190", "properties": {"id": "27190", "name": "Елена", "province": "Велико Търново"}, "geometry": {"type": "Point", "coordinates": [25.874816, 42.929225]}}, {"type": "Feature", "id": "57354", "properties": {"id": "57354", "name": "Полски Тръмбеш", "province": "Велико Търново"}, "geometry": {"type": "Point", "coordinates": [25.632902, 43.370996]}}, {"type": "Feature", "id": "05611", "properties": {"id": "05611", "name": "Борово", "province": "Русе"}, "geometry": {"type": "Point", "coordinates": [25.805579, 43.484215]}}, {"type": "Feature", "id": "66229", "properties": {"id": "66229", "name": "Сеново", "province": "Русе"}, "geometry": {"type": "Point", "coordinates": [26.363563, 43.649578]}}, {"type": "Feature", "id": "15151", "properties": {"id": "15151", "name": "Глоджево", "province": "Русе"}, "geometry": {"type": "Point", "coordinates": [26.38825, 43.733033]}}, {"type": "Feature", "id": "10803", "properties": {"id": "10803", "name": "Ветово", "province": "Русе"}, "geometry": {"type": "Point", "coordinates": [26.263855, 43.703291]}}, {"type": "Feature", "id": "47336", "properties": {"id": "47336", "name": "Мартен", "province": "Русе"}, "geometry": {"type": "Point", "coordinates": [26.074281, 43.90462]}}, {"type": "Feature", "id": "63427", "properties": {"id": "63427", "name": "Русе", "province": "Русе"}, "geometry": {"type": "Point", "coordinates": [25.965655, 43.835571]}}, {"type": "Feature", "id": "67444", "properties": {"id": "67444", "name": "Сливо поле", "province": "Русе"}, "geometry": {"type": "Point", "coordinates": [26.204516, 43.943756]}}, {"type": "Feature", "id": "20184", "properties": {"id": "20184", "name": "Две могили", "province": "Русе"}, "geometry": {"type": "Point", "coordinates": [25.870656, 43.591753]}}, {"type": "Feature", "id": "07603", "properties": {"id": "07603", "name": "Бяла", "province": "Русе"}, "geometry": {"type": "Point", "coordinates": [25.739145, 43.45996]}}, {"type": "Feature", "id": "06224", "properties": {"id": "06224", "name": "Брегово", "province": "Видин"}, "geometry": {"type": "Point", "coordinates": [22.642009, 44.148433]}}, {"type": "Feature", "id": "24061", "properties": {"id": "24061", "name": "Дунавци", "province": "Видин"}, "geometry": {"type": "Point", "coordinates": [22.81716, 43.916185]}}, {"type": "Feature", "id": "10971", "properties": {"id": "10971", "name": "Видин", "province": "Видин"}, "geometry": {"type": "Point", "coordinates": [22.886212, 43.99301]}}, {"type": "Feature", "id": "40525", "properties": {"id": "40525", "name": "Кула", "province": "Видин"}, "geometry": {"type": "Point", "coordinates": [22.5214, 43.8878]}}, {"type": "Feature", "id": "03616", "properties": {"id": "03616", "name": "Белоградчик", "province": "Видин"}, "geometry": {"type": "Point", "coordinates": [22.6836, 43.6272]}}, {"type": "Feature", "id": "17645", "properties": {"id": "17645", "name": "Грамада", "province": "Видин"}, "geometry": {"type": "Point", "coordinates": [22.6586, 43.8344]}}, {"type": "Feature", "id": "21097", "properties": {"id": "21097", "name": "Димово", "province": "Видин"}, "geometry": {"type": "Point", "coordinates": [22.7269, 43.7417]}}, {"type": "Feature", "id": "27303", "properties": {"id": "27303", "name": "Елин Пелин", "province": "София"}, "geometry": {"type": "Point", "coordinates": [23.601312, 42.669073]}}, {"type": "Feature", "id": "22006", "properties": {"id": "22006", "name": "Долна баня", "province": "София"}, "geometry": {"type": "Point", "coordinates": [23.764795, 42.310679]}}, {"type": "Feature", "id": "56407", "properties": {"id": "56407", "name": "Пирдоп", "province": "София"}, "geometry": {"type": "Point", "coordinates": [24.177048, 42.703373]}}, {"type": "Feature", "id": "31044", "properties": {"id": "31044", "name": "Златица", "province": "София"}, "geometry": {"type": "Point", "coordinates": [24.139048, 42.714783]}}, {"type": "Feature", "id": "65869", "properties": {"id": "65869", "name": "Своге", "province": "София"}, "geometry": {"type": "Point", "coordinates": [23.343921, 42.962082]}}, {"type": "Feature", "id": "14461", "properties": {"id": "14461", "name": "гара Бов", "province": "София"}, "geometry": {"type": "Point", "coordinates": [23.35306, 43.02142]}}, {"type": "Feature", "id": "14475", "properties": {"id": "14475", "name": "гара Лакатник", "province": "София"}, "geometry": {"type": "Point", "coordinates": [23.374286, 43.080033]}}, {"type": "Feature", "id": "65231", "properties": {"id": "65231", "name": "Самоков", "province": "София"}, "geometry": {"type": "Point", "coordinates": [23.552797, 42.336998]}}, {"type": "Feature", "id": "58030", "properties": {"id": "58030", "name": "Правец", "province": "София"}, "geometry": {"type": "Point", "coordinates": [23.918843, 42.89425]}}, {"type": "Feature", "id": "05815", "properties": {"id": "05815", "name": "Ботевград", "province": "София"}, "geometry": {"type": "Point", "coordinates": [23.793366, 42.907651]}}, {"type": "Feature", "id": "38558", "properties": {"id": "38558", "name": "Копривщица", "province": "София"}, "geometry": {"type": "Point", "coordinates": [24.360292, 42.636122]}}, {"type": "Feature", "id": "67372", "properties": {"id": "67372", "name": "Сливница", "province": "София"}, "geometry": {"type": "Point", "coordinates": [23.037872, 42.851974]}}, {"type": "Feature", "id": "15309", "properties": {"id": "15309", "name": "Годеч", "province": "София"}, "geometry": {"type": "Point", "coordinates": [23.047232, 43.011102]}}, {"type": "Feature", "id": "32901", "properties": {"id": "32901", "name": "Ихтиман", "province": "София"}, "geometry": {"type": "Point", "coordinates": [23.816172, 42.438242]}}, {"type": "Feature", "id": "23409", "properties": {"id": "23409", "name": "Драгоман", "province": "София"}, "geometry": {"type": "Point", "coordinates": [22.9317, 42.9189]}}, {"type": "Feature", "id": "05027", "properties": {"id": "05027", "name": "Божурище", "province": "София"}, "geometry": {"type": "Point", "coordinates": [23.202003, 42.763497]}}, {"type": "Feature", "id": "38902", "properties": {"id": "38902", "name": "Костенец", "province": "София"}, "geometry": {"type": "Point", "coordinates": [23.862621, 42.305969]}}, {"type": "Feature", "id": "50245", "properties": {"id": "50245", "name": "Момин проход", "province": "София"}, "geometry": {"type": "Point", "coordinates": [23.871036, 42.330392]}}, {"type": "Feature", "id": "27632", "properties": {"id": "27632", "name": "Етрополе", "province": "София"}, "geometry": {"type": "Point", "coordinates": [23.998663, 42.834641]}}, {"type": "Feature", "id": "38978", "properties": {"id": "38978", "name": "Костинброд", "province": "София"}, "geometry": {"type": "Point", "coordinates": [23.215434, 42.813018]}}, {"type": "Feature", "id": "43236", "properties": {"id": "43236", "name": "Левски", "province": "Плевен"}, "geometry": {"type": "Point", "coordinates": [25.143096, 43.361454]}}, {"type": "Feature", "id": "56722", "properties": {"id": "56722", "name": "Плевен", "province": "Плевен"}, "geometry": {"type": "Point", "coordinates": [24.606084, 43.398835]}}, {"type": "Feature", "id": "67088", "properties": {"id": "67088", "name": "Славяново", "province": "Плевен"}, "geometry": {"type": "Point", "coordinates": [24.871502, 43.465035]}}, {"type": "Feature", "id": "22215", "properties": {"id": "22215", "name": "Долна Митрополия", "province": "Плевен"}, "geometry": {"type": "Point", "coordinates": [24.5333, 43.4667]}}, {"type": "Feature", "id": "73359", "properties": {"id": "73359", "name": "Тръстеник", "province": "Плевен"}, "geometry": {"type": "Point", "coordinates": [24.4667, 43.5167]}}, {"type": "Feature", "id": "22407", "properties": {"id": "22407", "name": "Долни Дъбник", "province": "Плевен"}, "geometry": {"type": "Point", "coordinates": [24.442316, 43.408835]}}, {"type": "Feature", "id": "51723", "properties": {"id": "51723", "name": "Никопол", "province": "Плевен"}, "geometry": {"type": "Point", "coordinates": [24.894663, 43.700859]}}, {"type": "Feature", "id": "57772", "properties": {"id": "57772", "name": "Пордим", "province": "Плевен"}, "geometry": {"type": "Point", "coordinates": [24.847643, 43.377983]}}, {"type": "Feature", "id": "55782", "properties": {"id": "55782", "name": "Искър", "province": "Плевен"}, "geometry": {"type": "Point", "coordinates": [24.267483, 43.455054]}}, {"type": "Feature", "id": "18099", "properties": {"id": "18099", "name": "Гулянци", "province": "Плевен"}, "geometry": {"type": "Point", "coordinates": [24.695501, 43.643574]}}, {"type": "Feature", "id": "03366", "properties": {"id": "03366", "name": "Белене", "province": "Плевен"}, "geometry": {"type": "Point", "coordinates": [25.124636, 43.644509]}}, {"type": "Feature", "id": "37863", "properties": {"id": "37863", "name": "Койнаре", "province": "Плевен"}, "geometry": {"type": "Point", "coordinates": [24.150263, 43.361525]}}, {"type": "Feature", "id": "80501", "properties": {"id": "80501", "name": "Червен бряг", "province": "Плевен"}, "geometry": {"type": "Point", "coordinates": [24.082851, 43.280451]}}, {"type": "Feature", "id": "37376", "properties": {"id": "37376", "name": "Кнежа", "province": "Плевен"}, "geometry": {"type": "Point", "coordinates": [24.080765, 43.492797]}}, {"type": "Feature", "id": "40422", "properties": {"id": "40422", "name": "Кубрат", "province": "Разград"}, "geometry": {"type": "Point", "coordinates": [26.500534, 43.796138]}}, {"type": "Feature", "id": "44166", "properties": {"id": "44166", "name": "Лозница", "province": "Разград"}, "geometry": {"type": "Point", "coordinates": [26.608032, 43.371829]}}, {"type": "Feature", "id": "32874", "properties": {"id": "32874", "name": "Исперих", "province": "Разград"}, "geometry": {"type": "Point", "coordinates": [26.830716, 43.716209]}}, {"type": "Feature", "id": "61710", "properties": {"id": "61710", "name": "Разград", "province": "Разград"}, "geometry": {"type": "Point", "coordinates": [26.5167, 43.5333]}}, {"type": "Feature", "id": "77308", "properties": {"id": "77308", "name": "Цар Калоян", "province": "Разград"}, "geometry": {"type": "Point", "coordinates": [26.236935, 43.608652]}}, {"type": "Feature", "id": "30065", "properties": {"id": "30065", "name": "Завет", "province": "Разград"}, "geometry": {"type": "Point", "coordinates": [26.678979, 43.763349]}}, {"type": "Feature", "id": "68850", "properties": {"id": "68850", "name": "Стара Загора", "province": "Стара Загора"}, "geometry": {"type": "Point", "coordinates": [25.634464, 42.425777]}}, {"type": "Feature", "id": "18280", "properties": {"id": "18280", "name": "Гълъбово", "province": "Стара Загора"}, "geometry": {"type": "Point", "coordinates": [25.865131, 42.135784]}}, {"type": "Feature", "id": "83199", "properties": {"id": "83199", "name": "Шипка", "province": "Стара Загора"}, "geometry": {"type": "Point", "coordinates": [25.332897, 42.712315]}}, {"type": "Feature", "id": "40292", "properties": {"id": "40292", "name": "Крън", "province": "Стара Загора"}, "geometry": {"type": "Point", "coordinates": [25.373802, 42.665776]}}, {"type": "Feature", "id": "35167", "properties": {"id": "35167", "name": "Казанлък", "province": "Стара Загора"}, "geometry": {"type": "Point", "coordinates": [25.392958, 42.619441]}}, {"type": "Feature", "id": "61460", "properties": {"id": "61460", "name": "Раднево", "province": "Стара Загора"}, "geometry": {"type": "Point", "coordinates": [25.93662, 42.292259]}}, {"type": "Feature", "id": "81414", "properties": {"id": "81414", "name": "Чирпан", "province": "Стара Загора"}, "geometry": {"type": "Point", "coordinates": [25.324854, 42.20207]}}, {"type": "Feature", "id": "51648", "properties": {"id": "51648", "name": "Николаево", "province": "Стара Загора"}, "geometry": {"type": "Point", "coordinates": [25.791248, 42.630058]}}, {"type": "Feature", "id": "49494", "properties": {"id": "49494", "name": "Мъглиж", "province": "Стара Загора"}, "geometry": {"type": "Point", "coordinates": [25.545443, 42.60677]}}, {"type": "Feature", "id": "55021", "properties": {"id": "55021", "name": "Павел баня", "province": "Стара Загора"}, "geometry": {"type": "Point", "coordinates": [25.206165, 42.595306]}}, {"type": "Feature", "id": "18157", "properties": {"id": "18157", "name": "Гурково", "province": "Стара Загора"}, "geometry": {"type": "Point", "coordinates": [25.79539, 42.657275]}}, {"type": "Feature", "id": "72343", "properties": {"id": "72343", "name": "Тетевен", "province": "Ловеч"}, "geometry": {"type": "Point", "coordinates": [24.258893, 42.918687]}}, {"type": "Feature", "id": "44327", "properties": {"id": "44327", "name": "Луковит", "province": "Ловеч"}, "geometry": {"type": "Point", "coordinates": [24.162994, 43.207835]}}, {"type": "Feature", "id": "43952", "properties": {"id": "43952", "name": "Ловеч", "province": "Ловеч"}, "geometry": {"type": "Point", "coordinates": [24.7167, 43.1333]}}, {"type": "Feature", "id": "87014", "properties": {"id": "87014", "name": "Ябланица", "province": "Ловеч"}, "geometry": {"type": "Point", "coordinates": [24.099187, 43.032348]}}, {"type": "Feature", "id": "75054", "properties": {"id": "75054", "name": "Угърчин", "province": "Ловеч"}, "geometry": {"type": "Point", "coordinates": [24.412689, 43.106225]}}, {"type": "Feature", "id": "43476", "properties": {"id": "43476", "name": "Летница", "province": "Ловеч"}, "geometry": {"type": "Point", "coordinates": [25.061252, 43.306676]}}, {"type": "Feature", "id": "73198", "properties": {"id": "73198", "name": "Троян", "province": "Ловеч"}, "geometry": {"type": "Point", "coordinates": [24.71297, 42.890375]}}, {"type": "Feature", "id": "52218", "properties": {"id": "52218", "name": "Априлци", "province": "Ловеч"}, "geometry": {"type": "Point", "coordinates": [24.919486, 42.840503]}}, {"type": "Feature", "id": "00702", "properties": {"id": "00702", "name": "Асеновград", "province": "Пловдив"}, "geometry": {"type": "Point", "coordinates": [24.877581, 42.008589]}}, {"type": "Feature", "id": "51980", "properties": {"id": "51980", "name": "Стамболийски", "province": "Пловдив"}, "geometry": {"type": "Point", "coordinates": [24.537673, 42.133313]}}, {"type": "Feature", "id": "39921", "properties": {"id": "39921", "name": "Кричим", "province": "Пловдив"}, "geometry": {"type": "Point", "coordinates": [24.466967, 42.042627]}}, {"type": "Feature", "id": "59080", "properties": {"id": "59080", "name": "Първомай", "province": "Пловдив"}, "geometry": {"type": "Point", "coordinates": [25.220463, 42.096906]}}, {"type": "Feature", "id": "68080", "properties": {"id": "68080", "name": "Сопот", "province": "Пловдив"}, "geometry": {"type": "Point", "coordinates": [24.754802, 42.653889]}}, {"type": "Feature", "id": "56784", "properties": {"id": "56784", "name": "Пловдив", "province": "Пловдив"}, "geometry": {"type": "Point", "coordinates": [24.748809, 42.159272]}}, {"type": "Feature", "id": "40467", "properties": {"id": "40467", "name": "Куклен", "province": "Пловдив"}, "geometry": {"type": "Point", "coordinates": [24.787304, 42.034342]}}, {"type": "Feature", "id": "70528", "properties": {"id": "70528", "name": "Съединение", "province": "Пловдив"}, "geometry": {"type": "Point", "coordinates": [24.546555, 42.274693]}}, {"type": "Feature", "id": "55909", "properties": {"id": "55909", "name": "Перущица", "province": "Пловдив"}, "geometry": {"type": "Point", "coordinates": [24.547953, 42.057517]}}, {"type": "Feature", "id": "77270", "properties": {"id": "77270", "name": "Хисаря", "province": "Пловдив"}, "geometry": {"type": "Point", "coordinates": [24.706209, 42.504366]}}, {"type": "Feature", "id": "44478", "properties": {"id": "44478", "name": "Лъки", "province": "Пловдив"}, "geometry": {"type": "Point", "coordinates": [24.831426, 41.832993]}}, {"type": "Feature", "id": "36498", "properties": {"id": "36498", "name": "Карлово", "province": "Пловдив"}, "geometry": {"type": "Point", "coordinates": [24.805939, 42.641321]}}, {"type": "Feature", "id": "35496", "properties": {"id": "35496", "name": "Калофер", "province": "Пловдив"}, "geometry": {"type": "Point", "coordinates": [24.96748, 42.613026]}}, {"type": "Feature", "id": "02720", "properties": {"id": "02720", "name": "Баня", "province": "Пловдив"}, "geometry": {"type": "Point", "coordinates": [24.833305, 42.543126]}}, {"type": "Feature", "id": "37277", "properties": {"id": "37277", "name": "Клисура", "province": "Пловдив"}, "geometry": {"type": "Point", "coordinates": [24.449643, 42.693066]}}, {"type": "Feature", "id": "06361", "properties": {"id": "06361", "name": "Брезово", "province": "Пловдив"}, "geometry": {"type": "Point", "coordinates": [25.076946, 42.34881]}}, {"type": "Feature", "id": "65139", "properties": {"id": "65139", "name": "Садово", "province": "Пловдив"}, "geometry": {"type": "Point", "coordinates": [24.9333, 42.1333]}}, {"type": "Feature", "id": "62075", "properties": {"id": "62075", "name": "Раковски", "province": "Пловдив"}, "geometry": {"type": "Point", "coordinates": [24.943104, 42.271584]}}, {"type": "Feature", "id": "56126", "properties": {"id": "56126", "name": "Петрич", "province": "Благоевград"}, "geometry": {"type": "Point", "coordinates": [23.206685, 41.398108]}}, {"type": "Feature", "id": "66460", "properties": {"id": "66460", "name": "Симитли", "province": "Благоевград"}, "geometry": {"type": "Point", "coordinates": [23.1167, 41.8833]}}, {"type": "Feature", "id": "14492", "properties": {"id": "14492", "name": "Кресна", "province": "Благоевград"}, "geometry": {"type": "Point", "coordinates": [23.166437, 41.720485]}}, {"type": "Feature", "id": "03504", "properties": {"id": "03504", "name": "Белица", "province": "Благоевград"}, "geometry": {"type": "Point", "coordinates": [23.559221, 41.950774]}}, {"type": "Feature", "id": "02676", "properties": {"id": "02676", "name": "Банско", "province": "Благоевград"}, "geometry": {"type": "Point", "coordinates": [23.485653, 41.840424]}}, {"type": "Feature", "id": "21498", "properties": {"id": "21498", "name": "Добринище", "province": "Благоевград"}, "geometry": {"type": "Point", "coordinates": [23.559286, 41.820194]}}, {"type": "Feature", "id": "87338", "properties": {"id": "87338", "name": "Якоруда", "province": "Благоевград"}, "geometry": {"type": "Point", "coordinates": [23.668836, 42.017813]}}, {"type": "Feature", "id": "04279", "properties": {"id": "04279", "name": "Благоевград", "province": "Благоевград"}, "geometry": {"type": "Point", "coordinates": [23.094339, 42.020857]}}, {"type": "Feature", "id": "17395", "properties": {"id": "17395", "name": "Гоце Делчев", "province": "Благоевград"}, "geometry": {"type": "Point", "coordinates": [23.728272, 41.572821]}}, {"type": "Feature", "id": "61813", "properties": {"id": "61813", "name": "Разлог", "province": "Благоевград"}, "geometry": {"type": "Point", "coordinates": [23.462841, 41.885998]}}, {"type": "Feature", "id": "77058", "properties": {"id": "77058", "name": "Хаджидимово", "province": "Благоевград"}, "geometry": {"type": "Point", "coordinates": [23.8686, 41.5222]}}, {"type": "Feature", "id": "47754", "properties": {"id": "47754", "name": "Мелник", "province": "Благоевград"}, "geometry": {"type": "Point", "coordinates": [23.39151, 41.524605]}}, {"type": "Feature", "id": "65334", "properties": {"id": "65334", "name": "Сандански", "province": "Благоевград"}, "geometry": {"type": "Point", "coordinates": [23.280354, 41.567843]}}, {"type": "Feature", "id": "73403", "properties": {"id": "73403", "name": "Трявна", "province": "Габрово"}, "geometry": {"type": "Point", "coordinates": [25.498839, 42.876652]}}, {"type": "Feature", "id": "56719", "properties": {"id": "56719", "name": "Плачковци", "province": "Габрово"}, "geometry": {"type": "Point", "coordinates": [25.481684, 42.827923]}}, {"type": "Feature", "id": "65927", "properties": {"id": "65927", "name": "Севлиево", "province": "Габрово"}, "geometry": {"type": "Point", "coordinates": [25.103401, 43.02669]}}, {"type": "Feature", "id": "23947", "properties": {"id": "23947", "name": "Дряново", "province": "Габрово"}, "geometry": {"type": "Point", "coordinates": [25.477119, 42.983639]}}, {"type": "Feature", "id": "14218", "properties": {"id": "14218", "name": "Габрово", "province": "Габрово"}, "geometry": {"type": "Point", "coordinates": [25.318684, 42.874221]}}, {"type": "Feature", "id": "62997", "properties": {"id": "62997", "name": "Роман", "province": "Враца"}, "geometry": {"type": "Point", "coordinates": [23.925366, 43.145604]}}, {"type": "Feature", "id": "54020", "properties": {"id": "54020", "name": "Оряхово", "province": "Враца"}, "geometry": {"type": "Point", "coordinates": [23.960734, 43.732237]}}, {"type": "Feature", "id": "37798", "properties": {"id": "37798", "name": "Козлодуй", "province": "Враца"}, "geometry": {"type": "Point", "coordinates": [23.724615, 43.775561]}}, {"type": "Feature", "id": "07702", "properties": {"id": "07702", "name": "Бяла Слатина", "province": "Враца"}, "geometry": {"type": "Point", "coordinates": [23.9333, 43.4667]}}, {"type": "Feature", "id": "48043", "properties": {"id": "48043", "name": "Мизия", "province": "Враца"}, "geometry": {"type": "Point", "coordinates": [23.853397, 43.691238]}}, {"type": "Feature", "id": "47714", "properties": {"id": "47714", "name": "Мездра", "province": "Враца"}, "geometry": {"type": "Point", "coordinates": [23.71434, 43.146207]}}, {"type": "Feature", "id": "39846", "properties": {"id": "39846", "name": "Криводол", "province": "Враца"}, "geometry": {"type": "Point", "coordinates": [23.475111, 43.368257]}}, {"type": "Feature", "id": "12259", "properties": {"id": "12259", "name": "Враца", "province": "Враца"}, "geometry": {"type": "Point", "coordinates": [23.55288, 43.210237]}}, {"type": "Feature", "id": "30778", "properties": {"id": "30778", "name": "Земен", "province": "Перник"}, "geometry": {"type": "Point", "coordinates": [22.747134, 42.477938]}}, {"type": "Feature", "id": "73273", "properties": {"id": "73273", "name": "Трън", "province": "Перник"}, "geometry": {"type": "Point", "coordinates": [22.6517, 42.8353]}}, {"type": "Feature", "id": "61577", "properties": {"id": "61577", "name": "Радомир", "province": "Перник"}, "geometry": {"type": "Point", "coordinates": [22.96158, 42.544263]}}, {"type": "Feature", "id": "72223", "properties": {"id": "72223", "name": "Батановци", "province": "Перник"}, "geometry": {"type": "Point", "coordinates": [22.955103, 42.602027]}}, {"type": "Feature", "id": "55871", "properties": {"id": "55871", "name": "Перник", "province": "Перник"}, "geometry": {"type": "Point", "coordinates": [23.037837, 42.605186]}}, {"type": "Feature", "id": "06286", "properties": {"id": "06286", "name": "Брезник", "province": "Перник"}, "geometry": {"type": "Point", "coordinates": [22.903874, 42.739873]}}, {"type": "Feature", "id": "35883", "properties": {"id": "35883", "name": "Камено", "province": "Бургас"}, "geometry": {"type": "Point", "coordinates": [27.29504, 42.573545]}}, {"type": "Feature", "id": "67800", "properties": {"id": "67800", "name": "Созопол", "province": "Бургас"}, "geometry": {"type": "Point", "coordinates": [27.696175, 42.417263]}}, {"type": "Feature", "id": "81178", "properties": {"id": "81178", "name": "Черноморец", "province": "Бургас"}, "geometry": {"type": "Point", "coordinates": [27.63832, 42.444263]}}, {"type": "Feature", "id": "00833", "properties": {"id": "00833", "name": "Ахелой", "province": "Бургас"}, "geometry": {"type": "Point", "coordinates": [27.649385, 42.646014]}}, {"type": "Feature", "id": "57491", "properties": {"id": "57491", "name": "Поморие", "province": "Бургас"}, "geometry": {"type": "Point", "coordinates": [27.61557, 42.568049]}}, {"type": "Feature", "id": "35033", "properties": {"id": "35033", "name": "Каблешково", "province": "Бургас"}, "geometry": {"type": "Point", "coordinates": [27.5665, 42.6607]}}, {"type": "Feature", "id": "53045", "properties": {"id": "53045", "name": "Обзор", "province": "Бургас"}, "geometry": {"type": "Point", "coordinates": [27.879953, 42.817462]}}, {"type": "Feature", "id": "51500", "properties": {"id": "51500", "name": "Несебър", "province": "Бургас"}, "geometry": {"type": "Point", "coordinates": [27.736, 42.6592]}}, {"type": "Feature", "id": "11538", "properties": {"id": "11538", "name": "Свети Влас", "province": "Бургас"}, "geometry": {"type": "Point", "coordinates": [27.758754, 42.713403]}}, {"type": "Feature", "id": "36525", "properties": {"id": "36525", "name": "Карнобат", "province": "Бургас"}, "geometry": {"type": "Point", "coordinates": [26.980353, 42.651105]}}, {"type": "Feature", "id": "00151", "properties": {"id": "00151", "name": "Айтос", "province": "Бургас"}, "geometry": {"type": "Point", "coordinates": [27.250644, 42.703117]}}, {"type": "Feature", "id": "46663", "properties": {"id": "46663", "name": "Малко Търново", "province": "Бургас"}, "geometry": {"type": "Point", "coordinates": [27.525048, 41.979794]}}, {"type": "Feature", "id": "07332", "properties": {"id": "07332", "name": "Българово", "province": "Бургас"}, "geometry": {"type": "Point", "coordinates": [27.306491, 42.621947]}}, {"type": "Feature", "id": "07079", "properties": {"id": "07079", "name": "Бургас", "province": "Бургас"}, "geometry": {"type": "Point", "coordinates": [27.462636, 42.504793]}}, {"type": "Feature", "id": "00878", "properties": {"id": "00878", "name": "Ахтопол", "province": "Бургас"}, "geometry": {"type": "Point", "coordinates": [27.940715, 42.099386]}}, {"type": "Feature", "id": "48619", "properties": {"id": "48619", "name": "Царево", "province": "Бургас"}, "geometry": {"type": "Point", "coordinates": [27.845415, 42.169553]}}, {"type": "Feature", "id": "37023", "properties": {"id": "37023", "name": "Китен", "province": "Бургас"}, "geometry": {"type": "Point", "coordinates": [27.770205, 42.234274]}}, {"type": "Feature", "id": "58356", "properties": {"id": "58356", "name": "Приморско", "province": "Бургас"}, "geometry": {"type": "Point", "coordinates": [27.753286, 42.268375]}}, {"type": "Feature", "id": "70247", "properties": {"id": "70247", "name": "Сунгурларе", "province": "Бургас"}, "geometry": {"type": "Point", "coordinates": [26.773459, 42.763109]}}, {"type": "Feature", "id": "17974", "properties": {"id": "17974", "name": "Средец", "province": "Бургас"}, "geometry": {"type": "Point", "coordinates": [27.181251, 42.345188]}}, {"type": "Feature", "id": "02508", "properties": {"id": "02508", "name": "Балчик", "province": "Добрич"}, "geometry": {"type": "Point", "coordinates": [28.161719, 43.426905]}}, {"type": "Feature", "id": "72271", "properties": {"id": "72271", "name": "Тервел", "province": "Добрич"}, "geometry": {"type": "Point", "coordinates": [27.407183, 43.748839]}}, {"type": "Feature", "id": "35064", "properties": {"id": "35064", "name": "Каварна", "province": "Добрич"}, "geometry": {"type": "Point", "coordinates": [28.339346, 43.435512]}}, {"type": "Feature", "id": "83017", "properties": {"id": "83017", "name": "Шабла", "province": "Добрич"}, "geometry": {"type": "Point", "coordinates": [28.535233, 43.537944]}}, {"type": "Feature", "id": "14711", "properties": {"id": "14711", "name": "Генерал Тошево", "province": "Добрич"}, "geometry": {"type": "Point", "coordinates": [28.039635, 43.701676]}}, {"type": "Feature", "id": "72624", "properties": {"id": "72624", "name": "Добрич", "province": "Добрич"}, "geometry": {"type": "Point", "coordinates": [27.8333, 43.5667]}}, {"type": "Feature", "id": "05284", "properties": {"id": "05284", "name": "Болярово", "province": "Ямбол"}, "geometry": {"type": "Point", "coordinates": [26.807762, 42.149305]}}, {"type": "Feature", "id": "69660", "properties": {"id": "69660", "name": "Стралджа", "province": "Ямбол"}, "geometry": {"type": "Point", "coordinates": [26.689713, 42.600227]}}, {"type": "Feature", "id": "27382", "properties": {"id": "27382", "name": "Елхово", "province": "Ямбол"}, "geometry": {"type": "Point", "coordinates": [26.56932, 42.172027]}}, {"type": "Feature", "id": "87374", "properties": {"id": "87374", "name": "Ямбол", "province": "Ямбол"}, "geometry": {"type": "Point", "coordinates": [26.503502, 42.4842]}}, {"type": "Feature", "id": "67708", "properties": {"id": "67708", "name": "Смядово", "province": "Шумен"}, "geometry": {"type": "Point", "coordinates": [27.013334, 43.063426]}}, {"type": "Feature", "id": "58222", "properties": {"id": "58222", "name": "Велики Преслав", "province": "Шумен"}, "geometry": {"type": "Point", "coordinates": [26.817968, 43.164541]}}, {"type": "Feature", "id": "36587", "properties": {"id": "36587", "name": "Каспичан", "province": "Шумен"}, "geometry": {"type": "Point", "coordinates": [27.154121, 43.317826]}}, {"type": "Feature", "id": "56770", "properties": {"id": "56770", "name": "Плиска", "province": "Шумен"}, "geometry": {"type": "Point", "coordinates": [27.12554, 43.36253]}}, {"type": "Feature", "id": "52009", "properties": {"id": "52009", "name": "Нови пазар", "province": "Шумен"}, "geometry": {"type": "Point", "coordinates": [27.197059, 43.347263]}}, {"type": "Feature", "id": "83510", "properties": {"id": "83510", "name": "Шумен", "province": "Шумен"}, "geometry": {"type": "Point", "coordinates": [26.936129, 43.27124]}}, {"type": "Feature", "id": "36079", "properties": {"id": "36079", "name": "Каолиново", "province": "Шумен"}, "geometry": {"type": "Point", "coordinates": [27.1167, 43.6167]}}, {"type": "Feature", "id": "12766", "properties": {"id": "12766", "name": "Върбица", "province": "Шумен"}, "geometry": {"type": "Point", "coordinates": [26.672691, 42.998176]}}, {"type": "Feature", "id": "00415", "properties": {"id": "00415", "name": "Алфатар", "province": "Силистра"}, "geometry": {"type": "Point", "coordinates": [27.286575, 43.945852]}}, {"type": "Feature", "id": "24030", "properties": {"id": "24030", "name": "Дулово", "province": "Силистра"}, "geometry": {"type": "Point", "coordinates": [27.139699, 43.822239]}}, {"type": "Feature", "id": "66425", "properties": {"id": "66425", "name": "Силистра", "province": "Силистра"}, "geometry": {"type": "Point", "coordinates": [27.2667, 44.1167]}}, {"type": "Feature", "id": "15031", "properties": {"id": "15031", "name": "Главиница", "province": "Силистра"}, "geometry": {"type": "Point", "coordinates": [26.834338, 43.911181]}}, {"type": "Feature", "id": "73496", "properties": {"id": "73496", "name": "Тутракан", "province": "Силистра"}, "geometry": {"type": "Point", "coordinates": [26.61951, 44.038604]}}, {"type": "Feature", "id": "51809", "properties": {"id": "51809", "name": "Нова Загора", "province": "Сливен"}, "geometry": {"type": "Point", "coordinates": [26.01253, 42.491242]}}, {"type": "Feature", "id": "39030", "properties": {"id": "39030", "name": "Котел", "province": "Сливен"}, "geometry": {"type": "Point", "coordinates": [26.44965, 42.886766]}}, {"type": "Feature", "id": "36779", "properties": {"id": "36779", "name": "Кермен", "province": "Сливен"}, "geometry": {"type": "Point", "coordinates": [26.257216, 42.508005]}}, {"type": "Feature", "id": "67338", "properties": {"id": "67338", "name": "Сливен", "province": "Сливен"}, "geometry": {"type": "Point", "coordinates": [26.322869, 42.681654]}}, {"type": "Feature", "id": "15944", "properties": {"id": "15944", "name": "Шивачево", "province": "Сливен"}, "geometry": {"type": "Point", "coordinates": [26.030574, 42.686337]}}, {"type": "Feature", "id": "72165", "properties": {"id": "72165", "name": "Твърдица", "province": "Сливен"}, "geometry": {"type": "Point", "coordinates": [25.896035, 42.701562]}}, {"type": "Feature", "id": "20746", "properties": {"id": "20746", "name": "Джебел", "province": "Кърджали"}, "geometry": {"type": "Point", "coordinates": [25.304238, 41.496324]}}, {"type": "Feature", "id": "40909", "properties": {"id": "40909", "name": "Кърджали", "province": "Кърджали"}, "geometry": {"type": "Point", "coordinates": [25.373592, 41.637372]}}, {"type": "Feature", "id": "00607", "properties": {"id": "00607", "name": "Ардино", "province": "Кърджали"}, "geometry": {"type": "Point", "coordinates": [25.133681, 41.583389]}}, {"type": "Feature", "id": "39970", "properties": {"id": "39970", "name": "Крумовград", "province": "Кърджали"}, "geometry": {"type": "Point", "coordinates": [25.65531, 41.471294]}}, {"type": "Feature", "id": "48996", "properties": {"id": "48996", "name": "Момчилград", "province": "Кърджали"}, "geometry": {"type": "Point", "coordinates": [25.409394, 41.527276]}}, {"type": "Feature", "id": "04501", "properties": {"id": "04501", "name": "Бобов дол", "province": "Кюстендил"}, "geometry": {"type": "Point", "coordinates": [23.005187, 42.366386]}}, {"type": "Feature", "id": "39116", "properties": {"id": "39116", "name": "Кочериново", "province": "Кюстендил"}, "geometry": {"type": "Point", "coordinates": [23.055789, 42.084588]}}, {"type": "Feature", "id": "68789", "properties": {"id": "68789", "name": "Дупница", "province": "Кюстендил"}, "geometry": {"type": "Point", "coordinates": [23.112442, 42.261328]}}, {"type": "Feature", "id": "04532", "properties": {"id": "04532", "name": "Бобошево", "province": "Кюстендил"}, "geometry": {"type": "Point", "coordinates": [22.999501, 42.150966]}}, {"type": "Feature", "id": "62671", "properties": {"id": "62671", "name": "Рила", "province": "Кюстендил"}, "geometry": {"type": "Point", "coordinates": [23.132101, 42.126653]}}, {"type": "Feature", "id": "62685", "properties": {"id": "62685", "name": "ман. Рилски манастир", "province": "Кюстендил"}, "geometry": {"type": "Point", "coordinates": [23.339706, 42.13422]}}, {"type": "Feature", "id": "41112", "properties": {"id": "41112", "name": "Кюстендил", "province": "Кюстендил"}, "geometry": {"type": "Point", "coordinates": [22.693931, 42.286882]}}, {"type": "Feature", "id": "65365", "properties": {"id": "65365", "name": "Сапарева баня", "province": "Кюстендил"}, "geometry": {"type": "Point", "coordinates": [23.268625, 42.289973]}}]}